{
"type": "FeatureCollection",
"name": "hyderabad_enriched_buildings",
"crs": { "type": "name", "properties": { "name": "urn:ogc:def:crs:OGC:1.3:CRS84" } },
"features": [
{ "type": "Feature", "properties": { "id": "bldg_0001", "subtype": "residential", "height": 36.0, "num_floors": 2, "hyderabad_building_greenery_index_mean": 0.62065672874450684, "hyderabad_building_greenery_index_p90": 0.77392888069152832, "urban_vulnerability_index": 0.35235189228841268 }, "geometry": { "type": "Polygon", "coordinates": [ [ [ 78.379188710860589, 17.424226715510805 ], [ 78.380160848689926, 17.424226715510805 ], [ 78.380160848689926, 17.424774866996046 ], [ 78.379188710860589, 17.424774866996046 ], [ 78.379188710860589, 17.424226715510805 ] ] ] } },
{ "type": "Feature", "properties": { "id": "bldg_0002", "subtype": "commercial", "height": 32.0, "num_floors": 11, "hyderabad_building_greenery_index_mean": 0.54862469434738159, "hyderabad_building_greenery_index_p90": 0.660106360912323, "urban_vulnerability_index": 0.45251959382704332 }, "geometry": { "type": "Polygon", "coordinates": [ [ [ 78.382744572243737, 17.354217351991437 ], [ 78.383516420076276, 17.354217351991437 ], [ 78.383516420076276, 17.355156603909396 ], [ 78.382744572243737, 17.355156603909396 ], [ 78.382744572243737, 17.354217351991437 ] ] ] } },
{ "type": "Feature", "properties": { "id": "bldg_0003", "subtype": "industrial", "height": 34.0, "num_floors": 11, "hyderabad_building_greenery_index_mean": 0.65051281452178955, "hyderabad_building_greenery_index_p90": 0.81394827365875244, "urban_vulnerability_index": 0.31083403826303801 }, "geometry": { "type": "Polygon", "coordinates": [ [ [ 78.539055506603717, 17.406463655394322 ], [ 78.539590560698315, 17.406463655394322 ], [ 78.539590560698315, 17.407579846237166 ], [ 78.539055506603717, 17.407579846237166 ], [ 78.539055506603717, 17.406463655394322 ] ] ] } },
{ "type": "Feature", "properties": { "id": "bldg_0004", "subtype": "retail", "height": 12.0, "num_floors": 9, "hyderabad_building_greenery_index_mean": 0.60419464111328125, "hyderabad_building_greenery_index_p90": 0.7351839542388916, "urban_vulnerability_index": 0.37524406095126528 }, "geometry": { "type": "Polygon", "coordinates": [ [ [ 78.493444619382572, 17.471619578319135 ], [ 78.493863447651563, 17.471619578319135 ], [ 78.493863447651563, 17.472031818085895 ], [ 78.493444619382572, 17.472031818085895 ], [ 78.493444619382572, 17.471619578319135 ] ] ] } },
{ "type": "Feature", "properties": { "id": "bldg_0005", "subtype": "office", "height": 18.0, "num_floors": 7, "hyderabad_building_greenery_index_mean": 0.56049025058746338, "hyderabad_building_greenery_index_p90": 0.77176922559738159, "urban_vulnerability_index": 0.43601935881363685 }, "geometry": { "type": "Polygon", "coordinates": [ [ [ 78.535617479297755, 17.364509555556747 ], [ 78.536221975602487, 17.364509555556747 ], [ 78.536221975602487, 17.365659154903845 ], [ 78.535617479297755, 17.365659154903845 ], [ 78.535617479297755, 17.364509555556747 ] ] ] } },
{ "type": "Feature", "properties": { "id": "bldg_0006", "subtype": "residential", "height": 16.0, "num_floors": 14, "hyderabad_building_greenery_index_mean": 0.49423396587371826, "hyderabad_building_greenery_index_p90": 0.61003297567367554, "urban_vulnerability_index": 0.52815530649040865 }, "geometry": { "type": "Polygon", "coordinates": [ [ [ 78.501832610882815, 17.467822198629243 ], [ 78.502165461378866, 17.467822198629243 ], [ 78.502165461378866, 17.468457060340363 ], [ 78.501965751081229, 17.468457060340363 ], [ 78.501965751081229, 17.468880301481111 ], [ 78.501832610882815, 17.468880301481111 ], [ 78.501832610882815, 17.467822198629243 ] ] ] } },
{ "type": "Feature", "properties": { "id": "bldg_0007", "subtype": "commercial", "height": 28.0, "num_floors": 4, "hyderabad_building_greenery_index_mean": 0.59855508804321289, "hyderabad_building_greenery_index_p90": 0.72074687480926514, "urban_vulnerability_index": 0.38308641988867187 }, "geometry": { "type": "Polygon", "coordinates": [ [ [ 78.359173314282316, 17.305245266203912 ], [ 78.359924986921115, 17.305245266203912 ], [ 78.359924986921115, 17.306442583626712 ], [ 78.359173314282316, 17.306442583626712 ], [ 78.359173314282316, 17.305245266203912 ] ] ] } },
{ "type": "Feature", "properties": { "id": "bldg_0008", "subtype": "industrial", "height": 51.0, "num_floors": 4, "hyderabad_building_greenery_index_mean": 0.61837917566299438, "hyderabad_building_greenery_index_p90": 0.78280162811279297, "urban_vulnerability_index": 0.35551905616510626 }, "geometry": { "type": "Polygon", "coordinates": [ [ [ 78.370840626709381, 17.43641795855758 ], [ 78.371525587430639, 17.43641795855758 ], [ 78.371525587430639, 17.436999721936836 ], [ 78.371114610997878, 17.436999721936836 ], [ 78.371114610997878, 17.43738756418967 ], [ 78.370840626709381, 17.43738756418967 ], [ 78.370840626709381, 17.43641795855758 ] ] ] } },
{ "type": "Feature", "properties": { "id": "bldg_0009", "subtype": "retail", "height": 14.0, "num_floors": 7, "hyderabad_building_greenery_index_mean": 0.62669187784194946, "hyderabad_building_greenery_index_p90": 0.75597673654556274, "urban_vulnerability_index": 0.34395941776519001 }, "geometry": { "type": "Polygon", "coordinates": [ [ [ 78.39260856653253, 17.453864622166812 ], [ 78.393115360654676, 17.453864622166812 ], [ 78.393115360654676, 17.454147683358837 ], [ 78.392811284181391, 17.454147683358837 ], [ 78.392811284181391, 17.454336390820188 ], [ 78.39260856653253, 17.454336390820188 ], [ 78.39260856653253, 17.453864622166812 ] ] ] } },
{ "type": "Feature", "properties": { "id": "bldg_0010", "subtype": "office", "height": 38.0, "num_floors": 2, "hyderabad_building_greenery_index_mean": 0.53986173868179321, "hyderabad_building_greenery_index_p90": 0.69918990135192871, "urban_vulnerability_index": 0.46470535444110062 }, "geometry": { "type": "Polygon", "coordinates": [ [ [ 78.406424863862284, 17.306494776479081 ], [ 78.406885808437664, 17.306494776479081 ], [ 78.406885808437664, 17.307627765513409 ], [ 78.406424863862284, 17.307627765513409 ], [ 78.406424863862284, 17.306494776479081 ] ] ] } },
{ "type": "Feature", "properties": { "id": "bldg_0011", "subtype": "residential", "height": 36.0, "num_floors": 11, "hyderabad_building_greenery_index_mean": 0.55981206893920898, "hyderabad_building_greenery_index_p90": 0.76205587387084961, "urban_vulnerability_index": 0.43696243778537325 }, "geometry": { "type": "Polygon", "coordinates": [ [ [ 78.375494761483296, 17.355907740806963 ], [ 78.376467826087548, 17.355907740806963 ], [ 78.376467826087548, 17.357068311335397 ], [ 78.375494761483296, 17.357068311335397 ], [ 78.375494761483296, 17.355907740806963 ] ] ] } },
{ "type": "Feature", "properties": { "id": "bldg_0012", "subtype": "commercial", "height": 45.0, "num_floors": 9, "hyderabad_building_greenery_index_mean": 0.56493711471557617, "hyderabad_building_greenery_index_p90": 0.66673970222473145, "urban_vulnerability_index": 0.42983555236563487 }, "geometry": { "type": "Polygon", "coordinates": [ [ [ 78.469580731638203, 17.447627261754455 ], [ 78.470201236407931, 17.447627261754455 ], [ 78.470201236407931, 17.448128024173972 ], [ 78.469580731638203, 17.448128024173972 ], [ 78.469580731638203, 17.447627261754455 ] ] ] } },
{ "type": "Feature", "properties": { "id": "bldg_0013", "subtype": "industrial", "height": 49.0, "num_floors": 1, "hyderabad_building_greenery_index_mean": 0.6005902886390686, "hyderabad_building_greenery_index_p90": 0.71167880296707153, "urban_vulnerability_index": 0.38025627122546746 }, "geometry": { "type": "Polygon", "coordinates": [ [ [ 78.373802886069114, 17.318970288145895 ], [ 78.374412309676259, 17.318970288145895 ], [ 78.374412309676259, 17.319661093540592 ], [ 78.373802886069114, 17.319661093540592 ], [ 78.373802886069114, 17.318970288145895 ] ] ] } },
{ "type": "Feature", "properties": { "id": "bldg_0014", "subtype": "retail", "height": 47.0, "num_floors": 2, "hyderabad_building_greenery_index_mean": 0.58136206865310669, "hyderabad_building_greenery_index_p90": 0.6195533275604248, "urban_vulnerability_index": 0.40699502179378166 }, "geometry": { "type": "Polygon", "coordinates": [ [ [ 78.417356072365905, 17.364157042897929 ], [ 78.418245064808019, 17.364157042897929 ], [ 78.418245064808019, 17.364472767910584 ], [ 78.417711669342751, 17.364472767910584 ], [ 78.417711669342751, 17.364683251252355 ], [ 78.417356072365905, 17.364683251252355 ], [ 78.417356072365905, 17.364157042897929 ] ] ] } },
{ "type": "Feature", "properties": { "id": "bldg_0015", "subtype": "office", "height": 27.0, "num_floors": 5, "hyderabad_building_greenery_index_mean": 0.54384821653366089, "hyderabad_building_greenery_index_p90": 0.73341459035873413, "urban_vulnerability_index": 0.45916176085807425 }, "geometry": { "type": "Polygon", "coordinates": [ [ [ 78.381776390542001, 17.417421055874886 ], [ 78.382168920982892, 17.417421055874886 ], [ 78.382168920982892, 17.417762775889525 ], [ 78.38193340271836, 17.417762775889525 ], [ 78.38193340271836, 17.417990589232616 ], [ 78.381776390542001, 17.417990589232616 ], [ 78.381776390542001, 17.417421055874886 ] ] ] } },
{ "type": "Feature", "properties": { "id": "bldg_0016", "subtype": "residential", "height": 50.0, "num_floors": 7, "hyderabad_building_greenery_index_mean": 0.54913425445556641, "hyderabad_building_greenery_index_p90": 0.71696382761001587, "urban_vulnerability_index": 0.45181099986242967 }, "geometry": { "type": "Polygon", "coordinates": [ [ [ 78.417385896658843, 17.324944459007245 ], [ 78.418041010364064, 17.324944459007245 ], [ 78.418041010364064, 17.325447579456771 ], [ 78.417647942140931, 17.325447579456771 ], [ 78.417647942140931, 17.325782993089788 ], [ 78.417385896658843, 17.325782993089788 ], [ 78.417385896658843, 17.324944459007245 ] ] ] } },
{ "type": "Feature", "properties": { "id": "bldg_0017", "subtype": "commercial", "height": 47.0, "num_floors": 11, "hyderabad_building_greenery_index_mean": 0.55507016181945801, "hyderabad_building_greenery_index_p90": 0.74338436126708984, "urban_vulnerability_index": 0.44355653083120394 }, "geometry": { "type": "Polygon", "coordinates": [ [ [ 78.418235085844159, 17.371098232858028 ], [ 78.419290824667982, 17.371098232858028 ], [ 78.419290824667982, 17.371631451831593 ], [ 78.418657381373691, 17.371631451831593 ], [ 78.418657381373691, 17.371986931147301 ], [ 78.418235085844159, 17.371986931147301 ], [ 78.418235085844159, 17.371098232858028 ] ] ] } },
{ "type": "Feature", "properties": { "id": "bldg_0018", "subtype": "industrial", "height": 45.0, "num_floors": 8, "hyderabad_building_greenery_index_mean": 0.50398117303848267, "hyderabad_building_greenery_index_p90": 0.64193367958068848, "urban_vulnerability_index": 0.514600846363231 }, "geometry": { "type": "Polygon", "coordinates": [ [ [ 78.476380069676964, 17.439645102610651 ], [ 78.477461093312783, 17.439645102610651 ], [ 78.477461093312783, 17.440302207156989 ], [ 78.476812479131297, 17.440302207156989 ], [ 78.476812479131297, 17.440740276854548 ], [ 78.476380069676964, 17.440740276854548 ], [ 78.476380069676964, 17.439645102610651 ] ] ] } },
{ "type": "Feature", "properties": { "id": "bldg_0019", "subtype": "retail", "height": 50.0, "num_floors": 8, "hyderabad_building_greenery_index_mean": 0.62479960918426514, "hyderabad_building_greenery_index_p90": 0.8322332501411438, "urban_vulnerability_index": 0.34659080536544629 }, "geometry": { "type": "Polygon", "coordinates": [ [ [ 78.407525920302064, 17.359501293304817 ], [ 78.408276124701004, 17.359501293304817 ], [ 78.408276124701004, 17.360382969016509 ], [ 78.407525920302064, 17.360382969016509 ], [ 78.407525920302064, 17.359501293304817 ] ] ] } },
{ "type": "Feature", "properties": { "id": "bldg_0020", "subtype": "office", "height": 30.0, "num_floors": 10, "hyderabad_building_greenery_index_mean": 0.57111358642578125, "hyderabad_building_greenery_index_p90": 0.74104189872741699, "urban_vulnerability_index": 0.4212465547063613 }, "geometry": { "type": "Polygon", "coordinates": [ [ [ 78.524210276980455, 17.480509023598838 ], [ 78.524823315140438, 17.480509023598838 ], [ 78.524823315140438, 17.48084886133212 ], [ 78.524455492244442, 17.48084886133212 ], [ 78.524455492244442, 17.481075419820975 ], [ 78.524210276980455, 17.481075419820975 ], [ 78.524210276980455, 17.480509023598838 ] ] ] } },
{ "type": "Feature", "properties": { "id": "bldg_0021", "subtype": "residential", "height": 35.0, "num_floors": 7, "hyderabad_building_greenery_index_mean": 0.61927920579910278, "hyderabad_building_greenery_index_p90": 0.77877533435821533, "urban_vulnerability_index": 0.35426747482627519 }, "geometry": { "type": "Polygon", "coordinates": [ [ [ 78.359249079037681, 17.373126579494542 ], [ 78.360220538186752, 17.373126579494542 ], [ 78.360220538186752, 17.373410389743619 ], [ 78.35963766269731, 17.373410389743619 ], [ 78.35963766269731, 17.373599596576337 ], [ 78.359249079037681, 17.373599596576337 ], [ 78.359249079037681, 17.373126579494542 ] ] ] } },
{ "type": "Feature", "properties": { "id": "bldg_0022", "subtype": "commercial", "height": 36.0, "num_floors": 14, "hyderabad_building_greenery_index_mean": 0.54113078117370605, "hyderabad_building_greenery_index_p90": 0.73291134834289551, "urban_vulnerability_index": 0.46294062475334885 }, "geometry": { "type": "Polygon", "coordinates": [ [ [ 78.471941132940572, 17.48413011621102 ], [ 78.473046539602706, 17.48413011621102 ], [ 78.473046539602706, 17.484810870397144 ], [ 78.472383295605425, 17.484810870397144 ], [ 78.472383295605425, 17.485264706521225 ], [ 78.471941132940572, 17.485264706521225 ], [ 78.471941132940572, 17.48413011621102 ] ] ] } },
{ "type": "Feature", "properties": { "id": "bldg_0023", "subtype": "industrial", "height": 33.0, "num_floors": 6, "hyderabad_building_greenery_index_mean": 0.53595614433288574, "hyderabad_building_greenery_index_p90": 0.75159305334091187, "urban_vulnerability_index": 0.47013647147599502 }, "geometry": { "type": "Polygon", "coordinates": [ [ [ 78.496343578006815, 17.309109713050173 ], [ 78.497295609006471, 17.309109713050173 ], [ 78.497295609006471, 17.30950823390366 ], [ 78.496724390406669, 17.30950823390366 ], [ 78.496724390406669, 17.30977391447265 ], [ 78.496343578006815, 17.30977391447265 ], [ 78.496343578006815, 17.309109713050173 ] ] ] } },
{ "type": "Feature", "properties": { "id": "bldg_0024", "subtype": "retail", "height": 53.0, "num_floors": 4, "hyderabad_building_greenery_index_mean": 0.65464073419570923, "hyderabad_building_greenery_index_p90": 0.77008640766143799, "urban_vulnerability_index": 0.30509375577159792 }, "geometry": { "type": "Polygon", "coordinates": [ [ [ 78.518589739695017, 17.482528858418117 ], [ 78.519161467246761, 17.482528858418117 ], [ 78.519161467246761, 17.482851645639521 ], [ 78.518589739695017, 17.482851645639521 ], [ 78.518589739695017, 17.482528858418117 ] ] ] } },
{ "type": "Feature", "properties": { "id": "bldg_0025", "subtype": "office", "height": 47.0, "num_floors": 11, "hyderabad_building_greenery_index_mean": 0.6499183177947998, "hyderabad_building_greenery_index_p90": 0.78320837020874023, "urban_vulnerability_index": 0.31166074503611751 }, "geometry": { "type": "Polygon", "coordinates": [ [ [ 78.392122301843997, 17.365418486149473 ], [ 78.392859430315113, 17.365418486149473 ], [ 78.392859430315113, 17.365932967714979 ], [ 78.392122301843997, 17.365932967714979 ], [ 78.392122301843997, 17.365418486149473 ] ] ] } },
{ "type": "Feature", "properties": { "id": "bldg_0026", "subtype": "residential", "height": 36.0, "num_floors": 10, "hyderabad_building_greenery_index_mean": 0.49429279565811157, "hyderabad_building_greenery_index_p90": 0.61980795860290527, "urban_vulnerability_index": 0.52807349782938706 }, "geometry": { "type": "Polygon", "coordinates": [ [ [ 78.413137887102707, 17.472457159579637 ], [ 78.413469413433731, 17.472457159579637 ], [ 78.413469413433731, 17.473345426207928 ], [ 78.413137887102707, 17.473345426207928 ], [ 78.413137887102707, 17.472457159579637 ] ] ] } },
{ "type": "Feature", "properties": { "id": "bldg_0027", "subtype": "commercial", "height": 48.0, "num_floors": 6, "hyderabad_building_greenery_index_mean": 0.6156887412071228, "hyderabad_building_greenery_index_p90": 0.79652810096740723, "urban_vulnerability_index": 0.35926037262021604 }, "geometry": { "type": "Polygon", "coordinates": [ [ [ 78.536325475858106, 17.372063200067736 ], [ 78.537079114227353, 17.372063200067736 ], [ 78.537079114227353, 17.372540128771217 ], [ 78.536626931205802, 17.372540128771217 ], [ 78.536626931205802, 17.372858081240203 ], [ 78.536325475858106, 17.372858081240203 ], [ 78.536325475858106, 17.372063200067736 ] ] ] } },
{ "type": "Feature", "properties": { "id": "bldg_0028", "subtype": "industrial", "height": 53.0, "num_floors": 2, "hyderabad_building_greenery_index_mean": 0.52218174934387207, "hyderabad_building_greenery_index_p90": 0.70934200286865234, "urban_vulnerability_index": 0.48929113644808142 }, "geometry": { "type": "Polygon", "coordinates": [ [ [ 78.456827628348947, 17.494346722525332 ], [ 78.457248004336122, 17.494346722525332 ], [ 78.457248004336122, 17.494853823954326 ], [ 78.456995778743817, 17.494853823954326 ], [ 78.456995778743817, 17.495191891573658 ], [ 78.456827628348947, 17.495191891573658 ], [ 78.456827628348947, 17.494346722525332 ] ] ] } },
{ "type": "Feature", "properties": { "id": "bldg_0029", "subtype": "retail", "height": 26.0, "num_floors": 10, "hyderabad_building_greenery_index_mean": 0.6663023829460144, "hyderabad_building_greenery_index_p90": 0.75461405515670776, "urban_vulnerability_index": 0.28887707438469079 }, "geometry": { "type": "Polygon", "coordinates": [ [ [ 78.540797718126115, 17.487628131883856 ], [ 78.541486284504899, 17.487628131883856 ], [ 78.541486284504899, 17.488097394410008 ], [ 78.541073144677625, 17.488097394410008 ], [ 78.541073144677625, 17.488410236094111 ], [ 78.540797718126115, 17.488410236094111 ], [ 78.540797718126115, 17.487628131883856 ] ] ] } },
{ "type": "Feature", "properties": { "id": "bldg_0030", "subtype": "office", "height": 39.0, "num_floors": 2, "hyderabad_building_greenery_index_mean": 0.52109366655349731, "hyderabad_building_greenery_index_p90": 0.66334527730941772, "urban_vulnerability_index": 0.49080422368916488 }, "geometry": { "type": "Polygon", "coordinates": [ [ [ 78.535653727322071, 17.384574357412511 ], [ 78.536841966702127, 17.384574357412511 ], [ 78.536841966702127, 17.385556434237827 ], [ 78.535653727322071, 17.385556434237827 ], [ 78.535653727322071, 17.384574357412511 ] ] ] } },
{ "type": "Feature", "properties": { "id": "bldg_0031", "subtype": "residential", "height": 52.0, "num_floors": 7, "hyderabad_building_greenery_index_mean": 0.60199105739593506, "hyderabad_building_greenery_index_p90": 0.7582780122756958, "urban_vulnerability_index": 0.37830836307686688 }, "geometry": { "type": "Polygon", "coordinates": [ [ [ 78.409658911359742, 17.404283200543244 ], [ 78.410337043326564, 17.404283200543244 ], [ 78.410337043326564, 17.404925390720077 ], [ 78.409930164146473, 17.404925390720077 ], [ 78.409930164146473, 17.405353517504633 ], [ 78.409658911359742, 17.405353517504633 ], [ 78.409658911359742, 17.404283200543244 ] ] ] } },
{ "type": "Feature", "properties": { "id": "bldg_0032", "subtype": "commercial", "height": 47.0, "num_floors": 14, "hyderabad_building_greenery_index_mean": 0.62003898620605469, "hyderabad_building_greenery_index_p90": 0.77006649971008301, "urban_vulnerability_index": 0.35321092467223025 }, "geometry": { "type": "Polygon", "coordinates": [ [ [ 78.43731258911572, 17.360467184384181 ], [ 78.437925892719335, 17.360467184384181 ], [ 78.437925892719335, 17.361023269462198 ], [ 78.43755791055716, 17.361023269462198 ], [ 78.43755791055716, 17.361393992847546 ], [ 78.43731258911572, 17.361393992847546 ], [ 78.43731258911572, 17.360467184384181 ] ] ] } },
{ "type": "Feature", "properties": { "id": "bldg_0033", "subtype": "industrial", "height": 23.0, "num_floors": 14, "hyderabad_building_greenery_index_mean": 0.57688480615615845, "hyderabad_building_greenery_index_p90": 0.70407241582870483, "urban_vulnerability_index": 0.41322110019428726 }, "geometry": { "type": "Polygon", "coordinates": [ [ [ 78.426925731232046, 17.402318725328989 ], [ 78.427340473982483, 17.402318725328989 ], [ 78.427340473982483, 17.403158877075725 ], [ 78.426925731232046, 17.403158877075725 ], [ 78.426925731232046, 17.402318725328989 ] ] ] } },
{ "type": "Feature", "properties": { "id": "bldg_0034", "subtype": "retail", "height": 39.0, "num_floors": 10, "hyderabad_building_greenery_index_mean": 0.52619457244873047, "hyderabad_building_greenery_index_p90": 0.71712720394134521, "urban_vulnerability_index": 0.48371090717288523 }, "geometry": { "type": "Polygon", "coordinates": [ [ [ 78.430401393813852, 17.453108124857486 ], [ 78.430906124447191, 17.453108124857486 ], [ 78.430906124447191, 17.454039010787668 ], [ 78.430401393813852, 17.454039010787668 ], [ 78.430401393813852, 17.453108124857486 ] ] ] } },
{ "type": "Feature", "properties": { "id": "bldg_0035", "subtype": "office", "height": 54.0, "num_floors": 6, "hyderabad_building_greenery_index_mean": 0.57077842950820923, "hyderabad_building_greenery_index_p90": 0.68172144889831543, "urban_vulnerability_index": 0.42171262370425844 }, "geometry": { "type": "Polygon", "coordinates": [ [ [ 78.383752780060121, 17.360274389946962 ], [ 78.384568171339126, 17.360274389946962 ], [ 78.384568171339126, 17.361048856956209 ], [ 78.383752780060121, 17.361048856956209 ], [ 78.383752780060121, 17.360274389946962 ] ] ] } },
{ "type": "Feature", "properties": { "id": "bldg_0036", "subtype": "residential", "height": 33.0, "num_floors": 6, "hyderabad_building_greenery_index_mean": 0.64407938718795776, "hyderabad_building_greenery_index_p90": 0.7128443717956543, "urban_vulnerability_index": 0.31978035825023876 }, "geometry": { "type": "Polygon", "coordinates": [ [ [ 78.451624165475152, 17.356447652806729 ], [ 78.452400691390622, 17.356447652806729 ], [ 78.452400691390622, 17.357468510146614 ], [ 78.451624165475152, 17.357468510146614 ], [ 78.451624165475152, 17.356447652806729 ] ] ] } },
{ "type": "Feature", "properties": { "id": "bldg_0037", "subtype": "commercial", "height": 25.0, "num_floors": 14, "hyderabad_building_greenery_index_mean": 0.62206482887268066, "hyderabad_building_greenery_index_p90": 0.81776165962219238, "urban_vulnerability_index": 0.35039378913950237 }, "geometry": { "type": "Polygon", "coordinates": [ [ [ 78.408855563107892, 17.386519180751108 ], [ 78.409172175826939, 17.386519180751108 ], [ 78.409172175826939, 17.386936691572604 ], [ 78.408855563107892, 17.386936691572604 ], [ 78.408855563107892, 17.386519180751108 ] ] ] } },
{ "type": "Feature", "properties": { "id": "bldg_0038", "subtype": "industrial", "height": 41.0, "num_floors": 10, "hyderabad_building_greenery_index_mean": 0.55246341228485107, "hyderabad_building_greenery_index_p90": 0.63635754585266113, "urban_vulnerability_index": 0.44718147508765682 }, "geometry": { "type": "Polygon", "coordinates": [ [ [ 78.417414058897862, 17.332162376790897 ], [ 78.417977459345948, 17.332162376790897 ], [ 78.417977459345948, 17.332447472220398 ], [ 78.417639419077091, 17.332447472220398 ], [ 78.417639419077091, 17.332637535840067 ], [ 78.417414058897862, 17.332637535840067 ], [ 78.417414058897862, 17.332162376790897 ] ] ] } },
{ "type": "Feature", "properties": { "id": "bldg_0039", "subtype": "retail", "height": 39.0, "num_floors": 13, "hyderabad_building_greenery_index_mean": 0.63159102201461792, "hyderabad_building_greenery_index_p90": 0.7772904634475708, "urban_vulnerability_index": 0.33714667097288009 }, "geometry": { "type": "Polygon", "coordinates": [ [ [ 78.371434955259929, 17.420360724888159 ], [ 78.372464839870318, 17.420360724888159 ], [ 78.372464839870318, 17.42078608673777 ], [ 78.371846909104079, 17.42078608673777 ], [ 78.371846909104079, 17.421069661304177 ], [ 78.371434955259929, 17.421069661304177 ], [ 78.371434955259929, 17.420360724888159 ] ] ] } },
{ "type": "Feature", "properties": { "id": "bldg_0040", "subtype": "office", "height": 52.0, "num_floors": 5, "hyderabad_building_greenery_index_mean": 0.5159904956817627, "hyderabad_building_greenery_index_p90": 0.72534704208374023, "urban_vulnerability_index": 0.49790068988033698 }, "geometry": { "type": "Polygon", "coordinates": [ [ [ 78.420735895965521, 17.386591822656015 ], [ 78.421304761118705, 17.386591822656015 ], [ 78.421304761118705, 17.387166788510775 ], [ 78.420963442026789, 17.387166788510775 ], [ 78.420963442026789, 17.387550099080617 ], [ 78.420735895965521, 17.387550099080617 ], [ 78.420735895965521, 17.386591822656015 ] ] ] } },
{ "type": "Feature", "properties": { "id": "bldg_0041", "subtype": "residential", "height": 22.0, "num_floors": 12, "hyderabad_building_greenery_index_mean": 0.65937912464141846, "hyderabad_building_greenery_index_p90": 0.81307119131088257, "urban_vulnerability_index": 0.29850455301046863 }, "geometry": { "type": "Polygon", "coordinates": [ [ [ 78.435801255929007, 17.374397038182217 ], [ 78.436925447640121, 17.374397038182217 ], [ 78.436925447640121, 17.374710897765091 ], [ 78.435801255929007, 17.374710897765091 ], [ 78.435801255929007, 17.374397038182217 ] ] ] } },
{ "type": "Feature", "properties": { "id": "bldg_0042", "subtype": "commercial", "height": 46.0, "num_floors": 13, "hyderabad_building_greenery_index_mean": 0.56237059831619263, "hyderabad_building_greenery_index_p90": 0.74036931991577148, "urban_vulnerability_index": 0.43340454844965648 }, "geometry": { "type": "Polygon", "coordinates": [ [ [ 78.53590497202326, 17.307703014869404 ], [ 78.536698021794777, 17.307703014869404 ], [ 78.536698021794777, 17.3086198260937 ], [ 78.53590497202326, 17.3086198260937 ], [ 78.53590497202326, 17.307703014869404 ] ] ] } },
{ "type": "Feature", "properties": { "id": "bldg_0043", "subtype": "industrial", "height": 15.0, "num_floors": 4, "hyderabad_building_greenery_index_mean": 0.56513482332229614, "hyderabad_building_greenery_index_p90": 0.85668712854385376, "urban_vulnerability_index": 0.42956061890199893 }, "geometry": { "type": "Polygon", "coordinates": [ [ [ 78.400619813213751, 17.318840135710154 ], [ 78.401589311234929, 17.318840135710154 ], [ 78.401589311234929, 17.320026139457152 ], [ 78.400619813213751, 17.320026139457152 ], [ 78.400619813213751, 17.318840135710154 ] ] ] } },
{ "type": "Feature", "properties": { "id": "bldg_0044", "subtype": "retail", "height": 20.0, "num_floors": 3, "hyderabad_building_greenery_index_mean": 0.56213879585266113, "hyderabad_building_greenery_index_p90": 0.73223245143890381, "urban_vulnerability_index": 0.43372689280904153 }, "geometry": { "type": "Polygon", "coordinates": [ [ [ 78.42196992192487, 17.47249122126507 ], [ 78.422325009598509, 17.47249122126507 ], [ 78.422325009598509, 17.472721012996189 ], [ 78.422111956994328, 17.472721012996189 ], [ 78.422111956994328, 17.472874207483599 ], [ 78.42196992192487, 17.472874207483599 ], [ 78.42196992192487, 17.47249122126507 ] ] ] } },
{ "type": "Feature", "properties": { "id": "bldg_0045", "subtype": "office", "height": 26.0, "num_floors": 9, "hyderabad_building_greenery_index_mean": 0.57138383388519287, "hyderabad_building_greenery_index_p90": 0.7838587760925293, "urban_vulnerability_index": 0.42087074875998642 }, "geometry": { "type": "Polygon", "coordinates": [ [ [ 78.422360161749282, 17.433956745674969 ], [ 78.423462021296629, 17.433956745674969 ], [ 78.423462021296629, 17.434483883384523 ], [ 78.422360161749282, 17.434483883384523 ], [ 78.422360161749282, 17.433956745674969 ] ] ] } },
{ "type": "Feature", "properties": { "id": "bldg_0046", "subtype": "residential", "height": 47.0, "num_floors": 9, "hyderabad_building_greenery_index_mean": 0.55639225244522095, "hyderabad_building_greenery_index_p90": 0.78320837020874023, "urban_vulnerability_index": 0.44171803244202434 }, "geometry": { "type": "Polygon", "coordinates": [ [ [ 78.39548820734592, 17.360815562150471 ], [ 78.396279673947546, 17.360815562150471 ], [ 78.396279673947546, 17.361304229436882 ], [ 78.395804793986571, 17.361304229436882 ], [ 78.395804793986571, 17.361630007627827 ], [ 78.39548820734592, 17.361630007627827 ], [ 78.39548820734592, 17.360815562150471 ] ] ] } },
{ "type": "Feature", "properties": { "id": "bldg_0047", "subtype": "commercial", "height": 13.0, "num_floors": 12, "hyderabad_building_greenery_index_mean": 0.67036944627761841, "hyderabad_building_greenery_index_p90": 0.83178198337554932, "urban_vulnerability_index": 0.28322141868443929 }, "geometry": { "type": "Polygon", "coordinates": [ [ [ 78.392639179239268, 17.41603481122689 ], [ 78.393646996160555, 17.41603481122689 ], [ 78.393646996160555, 17.417047975913686 ], [ 78.392639179239268, 17.417047975913686 ], [ 78.392639179239268, 17.41603481122689 ] ] ] } },
{ "type": "Feature", "properties": { "id": "bldg_0048", "subtype": "industrial", "height": 49.0, "num_floors": 6, "hyderabad_building_greenery_index_mean": 0.56729018688201904, "hyderabad_building_greenery_index_p90": 0.78365904092788696, "urban_vulnerability_index": 0.42656337169713332 }, "geometry": { "type": "Polygon", "coordinates": [ [ [ 78.369059582184875, 17.431627332895854 ], [ 78.370022773592382, 17.431627332895854 ], [ 78.370022773592382, 17.43246907615444 ], [ 78.369059582184875, 17.43246907615444 ], [ 78.369059582184875, 17.431627332895854 ] ] ] } },
{ "type": "Feature", "properties": { "id": "bldg_0049", "subtype": "retail", "height": 17.0, "num_floors": 5, "hyderabad_building_greenery_index_mean": 0.60354447364807129, "hyderabad_building_greenery_index_p90": 0.69311231374740601, "urban_vulnerability_index": 0.37614818341775325 }, "geometry": { "type": "Polygon", "coordinates": [ [ [ 78.476972802499645, 17.409919925512227 ], [ 78.477602018733748, 17.409919925512227 ], [ 78.477602018733748, 17.41085996349064 ], [ 78.476972802499645, 17.41085996349064 ], [ 78.476972802499645, 17.409919925512227 ] ] ] } },
{ "type": "Feature", "properties": { "id": "bldg_0050", "subtype": "office", "height": 21.0, "num_floors": 9, "hyderabad_building_greenery_index_mean": 0.63494116067886353, "hyderabad_building_greenery_index_p90": 0.7812267541885376, "urban_vulnerability_index": 0.33248797026226162 }, "geometry": { "type": "Polygon", "coordinates": [ [ [ 78.372905965308036, 17.383641851142183 ], [ 78.373757624504393, 17.383641851142183 ], [ 78.373757624504393, 17.384241430778928 ], [ 78.372905965308036, 17.384241430778928 ], [ 78.372905965308036, 17.383641851142183 ] ] ] } },
{ "type": "Feature", "properties": { "id": "bldg_0051", "subtype": "residential", "height": 54.0, "num_floors": 3, "hyderabad_building_greenery_index_mean": 0.49327149987220764, "hyderabad_building_greenery_index_p90": 0.58822524547576904, "urban_vulnerability_index": 0.52949371110423482 }, "geometry": { "type": "Polygon", "coordinates": [ [ [ 78.474811308442625, 17.486508623252082 ], [ 78.475355026789373, 17.486508623252082 ], [ 78.475355026789373, 17.486967309006037 ], [ 78.475028795781327, 17.486967309006037 ], [ 78.475028795781327, 17.487273099508677 ], [ 78.474811308442625, 17.487273099508677 ], [ 78.474811308442625, 17.486508623252082 ] ] ] } },
{ "type": "Feature", "properties": { "id": "bldg_0052", "subtype": "commercial", "height": 47.0, "num_floors": 4, "hyderabad_building_greenery_index_mean": 0.58345931768417358, "hyderabad_building_greenery_index_p90": 0.70801007747650146, "urban_vulnerability_index": 0.40407858861576118 }, "geometry": { "type": "Polygon", "coordinates": [ [ [ 78.526419414015933, 17.314347250594466 ], [ 78.527029850164183, 17.314347250594466 ], [ 78.527029850164183, 17.314533623912343 ], [ 78.52666358847523, 17.314533623912343 ], [ 78.52666358847523, 17.314657872790928 ], [ 78.526419414015933, 17.314657872790928 ], [ 78.526419414015933, 17.314347250594466 ] ] ] } },
{ "type": "Feature", "properties": { "id": "bldg_0053", "subtype": "industrial", "height": 27.0, "num_floors": 12, "hyderabad_building_greenery_index_mean": 0.61789542436599731, "hyderabad_building_greenery_index_p90": 0.78867638111114502, "urban_vulnerability_index": 0.35619176041318268 }, "geometry": { "type": "Polygon", "coordinates": [ [ [ 78.518590543966951, 17.306551738204899 ], [ 78.519139065358019, 17.306551738204899 ], [ 78.519139065358019, 17.306977784598935 ], [ 78.518809952523384, 17.306977784598935 ], [ 78.518809952523384, 17.307261815528289 ], [ 78.518590543966951, 17.307261815528289 ], [ 78.518590543966951, 17.306551738204899 ] ] ] } },
{ "type": "Feature", "properties": { "id": "bldg_0054", "subtype": "retail", "height": 33.0, "num_floors": 7, "hyderabad_building_greenery_index_mean": 0.61337697505950928, "hyderabad_building_greenery_index_p90": 0.76805520057678223, "urban_vulnerability_index": 0.36247511316502146 }, "geometry": { "type": "Polygon", "coordinates": [ [ [ 78.464379641507861, 17.408246624363652 ], [ 78.464989937061503, 17.408246624363652 ], [ 78.464989937061503, 17.408979179635374 ], [ 78.464379641507861, 17.408979179635374 ], [ 78.464379641507861, 17.408246624363652 ] ] ] } },
{ "type": "Feature", "properties": { "id": "bldg_0055", "subtype": "office", "height": 17.0, "num_floors": 8, "hyderabad_building_greenery_index_mean": 0.62206482887268066, "hyderabad_building_greenery_index_p90": 0.81776165962219238, "urban_vulnerability_index": 0.35039378913950237 }, "geometry": { "type": "Polygon", "coordinates": [ [ [ 78.409468374077747, 17.386703112457059 ], [ 78.410415607572844, 17.386703112457059 ], [ 78.410415607572844, 17.387148600823668 ], [ 78.409847267475783, 17.387148600823668 ], [ 78.409847267475783, 17.387445593068076 ], [ 78.409468374077747, 17.387445593068076 ], [ 78.409468374077747, 17.386703112457059 ] ] ] } },
{ "type": "Feature", "properties": { "id": "bldg_0056", "subtype": "residential", "height": 12.0, "num_floors": 3, "hyderabad_building_greenery_index_mean": 0.63868403434753418, "hyderabad_building_greenery_index_p90": 0.7653767466545105, "urban_vulnerability_index": 0.32728313250253338 }, "geometry": { "type": "Polygon", "coordinates": [ [ [ 78.373847887704869, 17.359966418850028 ], [ 78.374237576272435, 17.359966418850028 ], [ 78.374237576272435, 17.360864142950629 ], [ 78.373847887704869, 17.360864142950629 ], [ 78.373847887704869, 17.359966418850028 ] ] ] } },
{ "type": "Feature", "properties": { "id": "bldg_0057", "subtype": "commercial", "height": 25.0, "num_floors": 8, "hyderabad_building_greenery_index_mean": 0.5607450008392334, "hyderabad_building_greenery_index_p90": 0.71825027465820312, "urban_vulnerability_index": 0.43566510327442065 }, "geometry": { "type": "Polygon", "coordinates": [ [ [ 78.539217128059008, 17.48999449872883 ], [ 78.540234377447476, 17.48999449872883 ], [ 78.540234377447476, 17.491181458448146 ], [ 78.539217128059008, 17.491181458448146 ], [ 78.539217128059008, 17.48999449872883 ] ] ] } },
{ "type": "Feature", "properties": { "id": "bldg_0058", "subtype": "industrial", "height": 41.0, "num_floors": 11, "hyderabad_building_greenery_index_mean": 0.55903381109237671, "hyderabad_building_greenery_index_p90": 0.74004256725311279, "urban_vulnerability_index": 0.43804468265564589 }, "geometry": { "type": "Polygon", "coordinates": [ [ [ 78.480134558122813, 17.47246609364387 ], [ 78.480544714207895, 17.47246609364387 ], [ 78.480544714207895, 17.472977195414849 ], [ 78.480298620556852, 17.472977195414849 ], [ 78.480298620556852, 17.473317929928836 ], [ 78.480134558122813, 17.473317929928836 ], [ 78.480134558122813, 17.47246609364387 ] ] ] } },
{ "type": "Feature", "properties": { "id": "bldg_0059", "subtype": "retail", "height": 52.0, "num_floors": 1, "hyderabad_building_greenery_index_mean": 0.6217767596244812, "hyderabad_building_greenery_index_p90": 0.77757132053375244, "urban_vulnerability_index": 0.35079437805410973 }, "geometry": { "type": "Polygon", "coordinates": [ [ [ 78.449573196020751, 17.395554341608015 ], [ 78.450616694380585, 17.395554341608015 ], [ 78.450616694380585, 17.395750920786561 ], [ 78.449990595364682, 17.395750920786561 ], [ 78.449990595364682, 17.395881973572259 ], [ 78.449573196020751, 17.395881973572259 ], [ 78.449573196020751, 17.395554341608015 ] ] ] } },
{ "type": "Feature", "properties": { "id": "bldg_0060", "subtype": "office", "height": 34.0, "num_floors": 8, "hyderabad_building_greenery_index_mean": 0.57961297035217285, "hyderabad_building_greenery_index_p90": 0.75760310888290405, "urban_vulnerability_index": 0.40942731678636435 }, "geometry": { "type": "Polygon", "coordinates": [ [ [ 78.46670183866479, 17.488687675247199 ], [ 78.467392005435542, 17.488687675247199 ], [ 78.467392005435542, 17.488997583458282 ], [ 78.466977905373085, 17.488997583458282 ], [ 78.466977905373085, 17.489204188932341 ], [ 78.46670183866479, 17.489204188932341 ], [ 78.46670183866479, 17.488687675247199 ] ] ] } },
{ "type": "Feature", "properties": { "id": "bldg_0061", "subtype": "residential", "height": 42.0, "num_floors": 2, "hyderabad_building_greenery_index_mean": 0.64927828311920166, "hyderabad_building_greenery_index_p90": 0.81642282009124756, "urban_vulnerability_index": 0.31255077685177102 }, "geometry": { "type": "Polygon", "coordinates": [ [ [ 78.434859188907211, 17.320125734417683 ], [ 78.435225964197159, 17.320125734417683 ], [ 78.435225964197159, 17.320317549325349 ], [ 78.435005899023196, 17.320317549325349 ], [ 78.435005899023196, 17.320445425930458 ], [ 78.434859188907211, 17.320445425930458 ], [ 78.434859188907211, 17.320125734417683 ] ] ] } },
{ "type": "Feature", "properties": { "id": "bldg_0062", "subtype": "commercial", "height": 19.0, "num_floors": 11, "hyderabad_building_greenery_index_mean": 0.58723485469818115, "hyderabad_building_greenery_index_p90": 0.77266669273376465, "urban_vulnerability_index": 0.39882832922863698 }, "geometry": { "type": "Polygon", "coordinates": [ [ [ 78.477521134429708, 17.383463870333038 ], [ 78.478311105128995, 17.383463870333038 ], [ 78.478311105128995, 17.38390959442166 ], [ 78.477521134429708, 17.38390959442166 ], [ 78.477521134429708, 17.383463870333038 ] ] ] } },
{ "type": "Feature", "properties": { "id": "bldg_0063", "subtype": "industrial", "height": 53.0, "num_floors": 1, "hyderabad_building_greenery_index_mean": 0.63439345359802246, "hyderabad_building_greenery_index_p90": 0.77378970384597778, "urban_vulnerability_index": 0.33324961138295817 }, "geometry": { "type": "Polygon", "coordinates": [ [ [ 78.395485824224465, 17.325462701892977 ], [ 78.395996116737706, 17.325462701892977 ], [ 78.395996116737706, 17.325798108954537 ], [ 78.395689941229762, 17.325798108954537 ], [ 78.395689941229762, 17.326021713662243 ], [ 78.395485824224465, 17.326021713662243 ], [ 78.395485824224465, 17.325462701892977 ] ] ] } },
{ "type": "Feature", "properties": { "id": "bldg_0064", "subtype": "retail", "height": 36.0, "num_floors": 4, "hyderabad_building_greenery_index_mean": 0.601276695728302, "hyderabad_building_greenery_index_p90": 0.70620828866958618, "urban_vulnerability_index": 0.37930175396070065 }, "geometry": { "type": "Polygon", "coordinates": [ [ [ 78.389933596075664, 17.322747745001578 ], [ 78.391101979875202, 17.322747745001578 ], [ 78.391101979875202, 17.323254322917837 ], [ 78.390400949595488, 17.323254322917837 ], [ 78.390400949595488, 17.323592041528673 ], [ 78.389933596075664, 17.323592041528673 ], [ 78.389933596075664, 17.322747745001578 ] ] ] } },
{ "type": "Feature", "properties": { "id": "bldg_0065", "subtype": "office", "height": 15.0, "num_floors": 12, "hyderabad_building_greenery_index_mean": 0.5282437801361084, "hyderabad_building_greenery_index_p90": 0.77358865737915039, "urban_vulnerability_index": 0.48086128025705654 }, "geometry": { "type": "Polygon", "coordinates": [ [ [ 78.468780441034028, 17.385630253802507 ], [ 78.469480798795161, 17.385630253802507 ], [ 78.469480798795161, 17.386246932104637 ], [ 78.469060584138475, 17.386246932104637 ], [ 78.469060584138475, 17.38665805097272 ], [ 78.468780441034028, 17.38665805097272 ], [ 78.468780441034028, 17.385630253802507 ] ] ] } },
{ "type": "Feature", "properties": { "id": "bldg_0066", "subtype": "residential", "height": 44.0, "num_floors": 11, "hyderabad_building_greenery_index_mean": 0.55802911520004272, "hyderabad_building_greenery_index_p90": 0.72191518545150757, "urban_vulnerability_index": 0.43944181212897948 }, "geometry": { "type": "Polygon", "coordinates": [ [ [ 78.503468446373304, 17.333427892006018 ], [ 78.503971016358349, 17.333427892006018 ], [ 78.503971016358349, 17.333650997394077 ], [ 78.503669474367328, 17.333650997394077 ], [ 78.503669474367328, 17.333799734319452 ], [ 78.503468446373304, 17.333799734319452 ], [ 78.503468446373304, 17.333427892006018 ] ] ] } },
{ "type": "Feature", "properties": { "id": "bldg_0067", "subtype": "commercial", "height": 10.0, "num_floors": 2, "hyderabad_building_greenery_index_mean": 0.58949488401412964, "hyderabad_building_greenery_index_p90": 0.7581748366355896, "urban_vulnerability_index": 0.39568553388926886 }, "geometry": { "type": "Polygon", "coordinates": [ [ [ 78.508753313753886, 17.449014621885329 ], [ 78.509312768097601, 17.449014621885329 ], [ 78.509312768097601, 17.449684722442814 ], [ 78.508753313753886, 17.449684722442814 ], [ 78.508753313753886, 17.449014621885329 ] ] ] } },
{ "type": "Feature", "properties": { "id": "bldg_0068", "subtype": "industrial", "height": 37.0, "num_floors": 2, "hyderabad_building_greenery_index_mean": 0.55094063282012939, "hyderabad_building_greenery_index_p90": 0.74347800016403198, "urban_vulnerability_index": 0.44929905124954128 }, "geometry": { "type": "Polygon", "coordinates": [ [ [ 78.482042101604094, 17.466187416011049 ], [ 78.482649939304721, 17.466187416011049 ], [ 78.482649939304721, 17.466459980247592 ], [ 78.482285236684348, 17.466459980247592 ], [ 78.482285236684348, 17.466641689738619 ], [ 78.482042101604094, 17.466641689738619 ], [ 78.482042101604094, 17.466187416011049 ] ] ] } },
{ "type": "Feature", "properties": { "id": "bldg_0069", "subtype": "retail", "height": 49.0, "num_floors": 14, "hyderabad_building_greenery_index_mean": 0.53858673572540283, "hyderabad_building_greenery_index_p90": 0.68604934215545654, "urban_vulnerability_index": 0.46647837274699044 }, "geometry": { "type": "Polygon", "coordinates": [ [ [ 78.412832770559689, 17.364306962179917 ], [ 78.413778867869894, 17.364306962179917 ], [ 78.413778867869894, 17.364770702654713 ], [ 78.413211209483777, 17.364770702654713 ], [ 78.413211209483777, 17.365079862971246 ], [ 78.412832770559689, 17.365079862971246 ], [ 78.412832770559689, 17.364306962179917 ] ] ] } },
{ "type": "Feature", "properties": { "id": "bldg_0070", "subtype": "office", "height": 8.0, "num_floors": 2, "hyderabad_building_greenery_index_mean": 0.61385047435760498, "hyderabad_building_greenery_index_p90": 0.77747273445129395, "urban_vulnerability_index": 0.36181666534014245 }, "geometry": { "type": "Polygon", "coordinates": [ [ [ 78.433686744747504, 17.321898758688334 ], [ 78.434184652541546, 17.321898758688334 ], [ 78.434184652541546, 17.322950116784533 ], [ 78.433686744747504, 17.322950116784533 ], [ 78.433686744747504, 17.321898758688334 ] ] ] } },
{ "type": "Feature", "properties": { "id": "bldg_0071", "subtype": "residential", "height": 23.0, "num_floors": 10, "hyderabad_building_greenery_index_mean": 0.59725737571716309, "hyderabad_building_greenery_index_p90": 0.7125391960144043, "urban_vulnerability_index": 0.38489101782966717 }, "geometry": { "type": "Polygon", "coordinates": [ [ [ 78.478788103849311, 17.408993726942388 ], [ 78.479339434366835, 17.408993726942388 ], [ 78.479339434366835, 17.409482297311428 ], [ 78.478788103849311, 17.409482297311428 ], [ 78.478788103849311, 17.408993726942388 ] ] ] } },
{ "type": "Feature", "properties": { "id": "bldg_0072", "subtype": "commercial", "height": 40.0, "num_floors": 14, "hyderabad_building_greenery_index_mean": 0.55057471990585327, "hyderabad_building_greenery_index_p90": 0.74142807722091675, "urban_vulnerability_index": 0.44980788951703032 }, "geometry": { "type": "Polygon", "coordinates": [ [ [ 78.514919887384039, 17.400958645729943 ], [ 78.515550241651738, 17.400958645729943 ], [ 78.515550241651738, 17.401202715217448 ], [ 78.515172029091119, 17.401202715217448 ], [ 78.515172029091119, 17.401365428209118 ], [ 78.514919887384039, 17.401365428209118 ], [ 78.514919887384039, 17.400958645729943 ] ] ] } },
{ "type": "Feature", "properties": { "id": "bldg_0073", "subtype": "industrial", "height": 10.0, "num_floors": 2, "hyderabad_building_greenery_index_mean": 0.51452398300170898, "hyderabad_building_greenery_index_p90": 0.70038056373596191, "urban_vulnerability_index": 0.49994002148699923 }, "geometry": { "type": "Polygon", "coordinates": [ [ [ 78.496931544690014, 17.473273455796082 ], [ 78.497827071043162, 17.473273455796082 ], [ 78.497827071043162, 17.473745447552638 ], [ 78.496931544690014, 17.473745447552638 ], [ 78.496931544690014, 17.473273455796082 ] ] ] } },
{ "type": "Feature", "properties": { "id": "bldg_0074", "subtype": "retail", "height": 25.0, "num_floors": 7, "hyderabad_building_greenery_index_mean": 0.49054855108261108, "hyderabad_building_greenery_index_p90": 0.79185086488723755, "urban_vulnerability_index": 0.53328024197128698 }, "geometry": { "type": "Polygon", "coordinates": [ [ [ 78.504700942638863, 17.436419760325641 ], [ 78.505564262717854, 17.436419760325641 ], [ 78.505564262717854, 17.437485532454474 ], [ 78.504700942638863, 17.437485532454474 ], [ 78.504700942638863, 17.436419760325641 ] ] ] } },
{ "type": "Feature", "properties": { "id": "bldg_0075", "subtype": "office", "height": 41.0, "num_floors": 1, "hyderabad_building_greenery_index_mean": 0.64250504970550537, "hyderabad_building_greenery_index_p90": 0.81318402290344238, "urban_vulnerability_index": 0.32196963095901654 }, "geometry": { "type": "Polygon", "coordinates": [ [ [ 78.412238752675123, 17.310867473575176 ], [ 78.412988911455386, 17.310867473575176 ], [ 78.412988911455386, 17.311906765069594 ], [ 78.412238752675123, 17.311906765069594 ], [ 78.412238752675123, 17.310867473575176 ] ] ] } },
{ "type": "Feature", "properties": { "id": "bldg_0076", "subtype": "residential", "height": 29.0, "num_floors": 4, "hyderabad_building_greenery_index_mean": 0.5612027645111084, "hyderabad_building_greenery_index_p90": 0.67767900228500366, "urban_vulnerability_index": 0.43502853740142577 }, "geometry": { "type": "Polygon", "coordinates": [ [ [ 78.448011830112122, 17.443597771377782 ], [ 78.448734194044491, 17.443597771377782 ], [ 78.448734194044491, 17.44453376791181 ], [ 78.448011830112122, 17.44453376791181 ], [ 78.448011830112122, 17.443597771377782 ] ] ] } },
{ "type": "Feature", "properties": { "id": "bldg_0077", "subtype": "commercial", "height": 48.0, "num_floors": 4, "hyderabad_building_greenery_index_mean": 0.61188369989395142, "hyderabad_building_greenery_index_p90": 0.72312533855438232, "urban_vulnerability_index": 0.36455166066712308 }, "geometry": { "type": "Polygon", "coordinates": [ [ [ 78.504334306092872, 17.377472866019495 ], [ 78.505293917204526, 17.377472866019495 ], [ 78.505293917204526, 17.377870874886238 ], [ 78.504334306092872, 17.377870874886238 ], [ 78.504334306092872, 17.377472866019495 ] ] ] } },
{ "type": "Feature", "properties": { "id": "bldg_0078", "subtype": "industrial", "height": 52.0, "num_floors": 8, "hyderabad_building_greenery_index_mean": 0.5730888843536377, "hyderabad_building_greenery_index_p90": 0.70627474784851074, "urban_vulnerability_index": 0.41849970665544334 }, "geometry": { "type": "Polygon", "coordinates": [ [ [ 78.380469968206555, 17.44740623878327 ], [ 78.380781033673543, 17.44740623878327 ], [ 78.380781033673543, 17.448553866915702 ], [ 78.380469968206555, 17.448553866915702 ], [ 78.380469968206555, 17.44740623878327 ] ] ] } },
{ "type": "Feature", "properties": { "id": "bldg_0079", "subtype": "retail", "height": 43.0, "num_floors": 3, "hyderabad_building_greenery_index_mean": 0.63058578968048096, "hyderabad_building_greenery_index_p90": 0.80446648597717285, "urban_vulnerability_index": 0.33854454642184606 }, "geometry": { "type": "Polygon", "coordinates": [ [ [ 78.505095797789309, 17.37503250208982 ], [ 78.505649665511896, 17.37503250208982 ], [ 78.505649665511896, 17.375494050284107 ], [ 78.50531734487835, 17.375494050284107 ], [ 78.50531734487835, 17.375801749080299 ], [ 78.505095797789309, 17.375801749080299 ], [ 78.505095797789309, 17.37503250208982 ] ] ] } },
{ "type": "Feature", "properties": { "id": "bldg_0080", "subtype": "office", "height": 23.0, "num_floors": 8, "hyderabad_building_greenery_index_mean": 0.64482080936431885, "hyderabad_building_greenery_index_p90": 0.73570829629898071, "urban_vulnerability_index": 0.31874933704005859 }, "geometry": { "type": "Polygon", "coordinates": [ [ [ 78.453936564644053, 17.409866912134881 ], [ 78.455085740808769, 17.409866912134881 ], [ 78.455085740808769, 17.410466937122454 ], [ 78.453936564644053, 17.410466937122454 ], [ 78.453936564644053, 17.409866912134881 ] ] ] } }
]
}
